NORAD_CAT_ID,OBJECT_NAME,OBJECT_TYPE,EPOCH,MEAN_MOTION,ECCENTRICITY,INCLINATION,RA_OF_ASC_NODE,ARG_OF_PERICENTER,MEAN_ANOMALY,BSTAR,MEAN_MOTION_DOT,MEAN_MOTION_DDOT,TLE_LINE0,TLE_LINE1,TLE_LINE2,SEMIMAJOR_AXIS,PERIOD,APOGEE,PERIGEE,DECAYED
54162.0,STARLINK-5273,PAYLOAD,2024-05-14 16:14:39,15.08862391,0.0001513,53.2156,115.0017,72.7113,287.4045,0.0010104,0.00015839,0.0,0 STARLINK-5273,1 54162U 22141F   24135.67684969  .00015839  00000-0  10104-2 0  9992,2 54162  53.2156 115.0017 0001513  72.7113 287.4045 15.08862391 85475,6917.812,95.436,540.724,538.63,0.0
54162.0,STARLINK-5273,PAYLOAD,2024-05-15 04:57:44,15.08876715,0.0001535,53.216,112.6228,75.3919,284.7244,0.00095287,0.00014925,0.0,0 STARLINK-5273,1 54162U 22141F   24136.20675994  .00014925  00000-0  95287-3 0  9991,2 54162  53.2160 112.6228 0001535  75.3919 284.7244 15.08876715 85559,6917.768,95.435,540.695,538.571,0.0
54162.0,STARLINK-5273,PAYLOAD,2024-05-16 03:13:06,15.08868997,0.0001436,53.2165,108.4592,100.0868,260.0286,0.00045845,7.022e-05,0.0,0 STARLINK-5273,1 54162U 22141F   24137.13410730  .00007022  00000-0  45845-3 0  9994,2 54162  53.2165 108.4592 0001436 100.0868 260.0286 15.08868997 85691,6917.792,95.436,540.65,538.663,0.0
54162.0,STARLINK-5273,PAYLOAD,2024-05-16 07:59:16,15.088602,0.0001721,53.2164,107.5677,71.9306,288.1874,5.0131e-05,5.1e-06,0.0,0 STARLINK-5273,1 54162U 22141F   24137.33282825  .00000510  00000-0  50131-4 0  9998,2 54162  53.2164 107.5677 0001721  71.9306 288.1874 15.08860200 85721,6917.819,95.436,540.874,538.493,0.0
54162.0,STARLINK-5273,PAYLOAD,2024-05-17 04:39:16,15.08847952,0.0001274,53.2161,103.7001,85.6956,274.4182,-6.1904e-05,-1.273e-05,0.0,0 STARLINK-5273,1 54162U 22141F   24138.19394635 -.00001273  00000-0 -61904-4 0  9995,2 54162  53.2161 103.7001 0001274  85.6956 274.4182 15.08847952 85856,6917.856,95.437,540.602,538.84,0.0
54162.0,STARLINK-5273,PAYLOAD,2024-05-17 14:11:35,15.08858101,0.0001375,53.2172,101.9169,89.6065,270.5085,4.9275e-05,4.97e-06,0.0,0 STARLINK-5273,1 54162U 22141F   24138.59137834  .00000497  00000-0  49275-4 0  9997,2 54162  53.2172 101.9169 0001375  89.6065 270.5085 15.08858101 85914,6917.825,95.436,540.641,538.739,0.0
54162.0,STARLINK-5273,PAYLOAD,2024-05-18 02:54:41,15.0882746,0.0001419,53.2155,99.5351,82.966,277.1493,-0.00015763,-2.795e-05,0.0,0 STARLINK-5273,1 54162U 22141F   24139.12131319 -.00002795  00000-0 -15763-3 0  9998,2 54162  53.2155  99.5351 0001419  82.9660 277.1493 15.08827460 85994,6917.919,95.438,540.765,538.802,0.0
54162.0,STARLINK-5273,PAYLOAD,2024-05-18 14:02:21,15.08863128,0.0001172,53.2153,97.4528,91.1804,268.9322,0.00048823,7.496e-05,0.0,0 STARLINK-5273,1 54162U 22141F   24139.58497530  .00007496  00000-0  48823-3 0  9992,2 54162  53.2153  97.4528 0001172  91.1804 268.9322 15.08863128 86062,6917.81,95.436,540.485,538.864,0.0
54162.0,STARLINK-5273,PAYLOAD,2024-05-18 20:23:55,15.08843919,0.0003084,53.217,96.2688,90.0798,270.0547,0.00013952,1.933e-05,0.0,0 STARLINK-5273,1 54162U 22141F   24139.84995024  .00001933  00000-0  13952-3 0  9997,2 54162  53.2170  96.2688 0003084  90.0798 270.0547 15.08843919 86103,6917.868,95.437,541.867,537.6,0.0
54162.0,STARLINK-5273,PAYLOAD,2024-05-19 04:20:52,15.08817359,0.0001427,53.2176,94.7819,103.357,256.7581,-0.0003273,-5.49e-05,0.0,0 STARLINK-5273,1 54162U 22141F   24140.18115827 -.00005490  00000-0 -32730-3 0  9990,2 54162  53.2176  94.7819 0001427 103.3570 256.7581 15.08817359 86156,6917.95,95.439,540.802,538.827,0.0
54162.0,STARLINK-5273,PAYLOAD,2024-05-19 07:31:38,15.08822258,0.0001229,53.2167,94.1836,109.9843,250.1281,-0.00023812,-4.074e-05,0.0,0 STARLINK-5273,1 54162U 22141F   24140.31363667 -.00004074  00000-0 -23812-3 0  9990,2 54162  53.2167  94.1836 0001229 109.9843 250.1281 15.08822258 86175,6917.935,95.439,540.65,538.949,0.0
54162.0,STARLINK-5273,PAYLOAD,2024-05-20 04:11:38,15.08847407,0.0001221,53.2162,90.3195,125.678,234.4326,0.00050228,7.717e-05,0.0,0 STARLINK-5273,1 54162U 22141F   24141.17475691  .00007717  00000-0  50228-3 0  9992,2 54162  53.2162  90.3195 0001221 125.6780 234.4326 15.08847407 86306,6917.858,95.437,540.567,538.878,0.0
54162.0,STARLINK-5273,PAYLOAD,2024-05-20 05:47:02,15.08847592,0.0001209,53.2163,90.022,122.3453,237.7656,0.00050716,7.794e-05,0.0,0 STARLINK-5273,1 54162U 22141F   24141.24099716  .00007794  00000-0  50716-3 0  9997,2 54162  53.2163  90.0220 0001209 122.3453 237.7656 15.08847592 86318,6917.857,95.437,540.559,538.886,0.0
54162.0,STARLINK-5273,PAYLOAD,2024-05-21 04:02:26,15.08842654,0.0001119,53.2169,85.8573,128.7393,231.3699,0.00025294,3.74e-05,0.0,0 STARLINK-5273,1 54162U 22141F   24142.16836034  .00003740  00000-0  25294-3 0  9991,2 54162  53.2169  85.8573 0001119 128.7393 231.3699 15.08842654 86456,6917.872,95.437,540.511,538.963,0.0
54162.0,STARLINK-5273,PAYLOAD,2024-05-22 02:17:50,15.08846726,0.0001022,53.217,81.6974,114.4512,245.6587,6.1854e-05,6.97e-06,0.0,0 STARLINK-5273,1 54162U 22141F   24143.09571851  .00000697  00000-0  61854-4 0  9998,2 54162  53.2170  81.6974 0001022 114.4512 245.6587 15.08846726 86598,6917.86,95.437,540.432,539.018,0.0
54162.0,STARLINK-5273,PAYLOAD,2024-05-23 02:08:37,15.08841893,0.0001267,53.2177,77.2409,70.4516,289.6613,0.00013034,1.787e-05,0.0,0 STARLINK-5273,1 54162U 22141F   24144.08932407  .00001787  00000-0  13034-3 0  9993,2 54162  53.2177  77.2409 0001267  70.4516 289.6613 15.08841893 86740,6917.875,95.437,540.616,538.863,0.0
54162.0,STARLINK-5273,PAYLOAD,2024-05-23 05:19:23,15.08842895,0.0001257,53.2178,76.6419,71.6484,288.4644,0.00013442,1.852e-05,0.0,0 STARLINK-5273,1 54162U 22141F   24144.22180287  .00001852  00000-0  13442-3 0  9996,2 54162  53.2178  76.6419 0001257  71.6484 288.4644 15.08842895 86767,6917.872,95.437,540.606,538.867,0.0
54162.0,STARLINK-5273,PAYLOAD,2024-05-24 05:10:10,15.08845064,0.0001291,53.2176,72.179,80.4132,279.7006,0.00015518,2.183e-05,0.0,0 STARLINK-5273,1 54162U 22141F   24145.21540092  .00002183  00000-0  15518-3 0  9994,2 54162  53.2176  72.1790 0001291  80.4132 279.7006 15.08845064 86917,6917.865,95.437,540.623,538.837,0.0
54162.0,STARLINK-5273,PAYLOAD,2024-05-24 22:39:25,15.08834086,6.5e-05,53.2176,68.9121,101.8271,258.2794,-1.9396e-05,-5.96e-06,0.0,0 STARLINK-5273,1 54162U 22141F   24145.94404507 -.00000596  00000-0 -19396-4 0  9991,2 54162  53.2176  68.9121 0000650 101.8271 258.2794 15.08834086 87029,6917.898,95.438,540.213,539.314,0.0
54162.0,STARLINK-5273,PAYLOAD,2024-05-25 01:50:11,15.08833219,0.000119,53.2173,68.3157,97.5598,262.5529,-3.8981e-05,-9.08e-06,0.0,0 STARLINK-5273,1 54162U 22141F   24146.07652631 -.00000908  00000-0 -38981-4 0  9997,2 54162  53.2173  68.3157 0001190  97.5598 262.5529 15.08833219 87045,6917.901,95.438,540.589,538.943,0.0
54162.0,STARLINK-5273,PAYLOAD,2024-05-25 11:22:30,15.08841222,0.0001244,53.2181,66.5334,96.2437,263.8697,8.5516e-05,1.073e-05,0.0,0 STARLINK-5273,1 54162U 22141F   24146.47396355  .00001073  00000-0  85516-4 0  9997,2 54162  53.2181  66.5334 0001244  96.2437 263.8697 15.08841222 87109,6917.877,95.437,540.602,538.881,0.0
54162.0,STARLINK-5273,PAYLOAD,2024-05-26 01:40:59,15.0883775,0.0001235,53.2183,63.8574,87.0092,273.1041,4.5019e-05,4.29e-06,0.0,0 STARLINK-5273,1 54162U 22141F   24147.07013026  .00000429  00000-0  45019-4 0  9993,2 54162  53.2183  63.8574 0001235  87.0092 273.1041 15.08837750 87199,6917.887,95.438,540.607,538.898,0.0
54162.0,STARLINK-5273,PAYLOAD,2024-05-26 22:20:59,15.08832421,0.000153,53.2185,60.0008,137.7286,222.3824,0.00020668,3.002e-05,0.0,0 STARLINK-5273,1 54162U 22141F   24147.93124931  .00003002  00000-0  20668-3 0  9998,2 54162  53.2185  60.0008 0001530 137.7286 222.3824 15.08832421 87328,6917.904,95.438,540.827,538.71,0.0
54162.0,STARLINK-5273,PAYLOAD,2024-05-27 04:42:32,15.08836932,0.0001317,53.2183,58.8015,93.1211,266.9932,0.00021489,3.133e-05,0.0,0 STARLINK-5273,1 54162U 22141F   24148.19620894  .00003133  00000-0  21489-3 0  9993,2 54162  53.2183  58.8015 0001317  93.1211 266.9932 15.08836932 87364,6917.89,95.438,540.666,538.844,0.0
54162.0,STARLINK-5273,PAYLOAD,2024-05-27 22:11:47,15.08840245,0.0001276,53.2187,55.5291,99.4455,260.6681,8.7479e-05,1.105e-05,0.0,0 STARLINK-5273,1 54162U 22141F   24148.92485106  .00001105  00000-0  87479-4 0  9998,2 54162  53.2187  55.5291 0001276  99.4455 260.6681 15.08840245 87477,6917.88,95.438,540.627,538.862,0.0
54162.0,STARLINK-5273,PAYLOAD,2024-05-28 10:54:52,15.08842949,0.0001211,53.2184,53.1503,96.7319,263.3811,9.7819e-05,1.269e-05,0.0,0 STARLINK-5273,1 54162U 22141F   24149.45476865  .00001269  00000-0  97819-4 0  9999,2 54162  53.2184  53.1503 0001211  96.7319 263.3811 15.08842949 87559,6917.871,95.437,540.574,538.899,0.0
54162.0,STARLINK-5273,PAYLOAD,2024-05-28 22:02:34,15.08842652,0.0001195,53.2179,51.0692,96.8232,263.2896,4.3976e-05,4.12e-06,0.0,0 STARLINK-5273,1 54162U 22141F   24149.91844981  .00000412  00000-0  43976-4 0  9992,2 54162  53.2179  51.0692 0001195  96.8232 263.2896 15.08842652 87626,6917.872,95.437,540.564,538.911,0.0
54162.0,STARLINK-5273,PAYLOAD,2024-05-29 02:48:43,15.08846081,0.0001312,53.2184,50.1773,89.5917,270.5226,7.2091e-05,8.6e-06,0.0,0 STARLINK-5273,1 54162U 22141F   24150.11716667  .00000860  00000-0  72091-4 0  9992,2 54162  53.2184  50.1773 0001312  89.5917 270.5226 15.08846081 87653,6917.862,95.437,540.634,538.819,0.0
54162.0,STARLINK-5273,PAYLOAD,2024-05-29 17:07:11,15.08841676,0.0001363,53.218,47.5029,84.4582,275.6566,4.8008e-05,4.76e-06,0.0,0 STARLINK-5273,1 54162U 22141F   24150.71332956  .00000476  00000-0  48008-4 0  9997,2 54162  53.2180  47.5029 0001363  84.4582 275.6566 15.08841676 87749,6917.875,95.437,540.683,538.797,0.0
54162.0,STARLINK-5273,PAYLOAD,2024-05-29 21:53:21,15.08840501,0.0001331,53.218,46.61,88.297,271.8174,3.9809e-05,3.46e-06,0.0,0 STARLINK-5273,1 54162U 22141F   24150.91205077  .00000346  00000-0  39809-4 0  9997,2 54162  53.2180  46.6100 0001331  88.2970 271.8174 15.08840501 87779,6917.879,95.438,540.665,538.823,0.0
